OBJECT_NAME,OBJECT_ID,EPOCH,MEAN_MOTION,ECCENTRICITY,INCLINATION,RA_OF_ASC_NODE,ARG_OF_PERICENTER,MEAN_ANOMALY,EPHEMERIS_TYPE,CLASSIFICATION_TYPE,NORAD_CAT_ID,ELEMENT_SET_NO,REV_AT_EPOCH,BSTAR,MEAN_MOTION_DOT,MEAN_MOTION_DDOT
TRITON-1,2013-066M,2026-05-11T14:59:08.362176,14.81541563,.00903037,97.8261,42.2640,354.6003,5.4227,0,U,39427,999,66867,.18815302E-3,.1526E-4,0
GOMX-1,2013-066Q,2026-05-11T13:11:03.562656,14.69314246,.01283247,97.6515,334.3223,194.5638,165.1858,0,U,39430,999,66453,.20090706E-3,.1294E-4,0
CUBEBUG-2 (LO-74),2013-066AA,2026-05-11T08:25:09.702336,14.93485849,.00587739,97.8888,80.1880,148.0280,212.4528,0,U,39440,999,67149,.20735408E-3,.2195E-4,0
NEE-02 KRYSAOR,2013-066AB,2026-05-11T09:21:03.361536,14.86480005,.00659238,97.8880,70.8755,189.0931,170.9096,0,U,39441,999,67073,.11321942E-3,.982E-5,0
FUNCUBE-1 (AO-73),2013-066AE,2026-05-11T14:11:43.345824,15.09009001,.00355816,97.8258,102.2919,331.0959,28.8297,0,U,39444,999,67414,.34515128E-3,.547E-4,0
UWE-3,2013-066AG,2026-05-11T09:10:55.608384,14.96714136,.00509925,97.8679,87.2245,82.4321,278.2689,0,U,39446,999,67207,.17442492E-3,.1982E-4,0
SMDC ONE 2.4,2013-072H,2026-05-11T01:12:21.030624,15.17484604,.013964,120.4875,208.7957,338.7660,20.7659,0,U,39469,999,11219,.2381116E-3,.577E-4,0
COSMOS 2488 (RODNIK-S 7),2013-076A,2026-05-11T13:45:19.723680,12.42904449,.00198998,82.4860,191.5054,171.8275,188.3132,0,U,39483,999,56134,-.16961694E-3,-.14E-6,0
COSMOS 2489 (RODNIK-S 8),2013-076B,2026-05-11T15:04:25.862304,12.42878984,.00217435,82.4897,192.8376,171.9025,188.2410,0,U,39484,999,56140,-.84779478E-3,-.108E-5,0
COSMOS 2490 (RODNIK-S 9),2013-076C,2026-05-11T14:23:51.430848,12.42876323,.00215058,82.4843,190.9389,187.6049,172.4708,0,U,39485,999,56133,-.73451524E-3,-.92E-6,0
KAZEOSAT 1,2014-024A,2026-05-11T14:16:10.346016,14.42065901,.00015819,98.3208,204.9494,91.8311,268.3060,0,U,39731,999,63328,.11584538E-3,.338E-5,0
COSMOS 2496 (RODNIK-S 10),2014-028A,2026-05-11T15:18:41.841792,12.42877072,.00203771,82.4428,131.6250,155.2537,204.9525,0,U,39761,999,54297,.47949332E-3,.76E-6,0
COSMOS 2497 (RODNIK-S 11),2014-028B,2026-05-11T14:43:46.034400,12.42892484,.00210431,82.4477,133.3160,150.4674,209.7599,0,U,39762,999,54297,-.35916004E-3,-.4E-6,0
COSMOS 2498 (RODNIK-S 12),2014-028C,2026-05-11T14:15:09.804672,12.42978993,.00217674,82.4436,131.8313,150.3048,209.9272,0,U,39763,999,54300,-.41355558E-3,-.47E-6,0
HODOYOSHI-4,2014-033B,2026-05-11T15:44:48.730848,14.88039524,.00250611,97.5461,318.2447,67.9828,292.4048,0,U,40011,999,64337,.72495337E-4,.617E-5,0
UNISAT-6,2014-033C,2026-05-11T10:05:11.332320,14.88027181,.00451132,97.7835,284.7952,187.9551,172.0955,0,U,40012,999,64069,.21502496E-3,.1955E-4,0
DEIMOS-2,2014-033D,2026-05-11T14:32:54.163680,14.93622511,.00024993,97.5876,7.3729,86.8191,273.3315,0,U,40013,999,63226,.12798577E-3,.1297E-4,0
BUGSAT-1 (TITA),2014-033E,2026-05-11T14:04:54.788736,15.15207954,.00271067,98.0408,222.0096,307.4660,52.4106,0,U,40014,999,65029,.21792524E-3,.4053E-4,0
SAUDISAT 4,2014-033G,2026-05-11T11:06:19.900512,14.79489154,.00445874,97.7534,278.8790,191.0981,168.9252,0,U,40016,999,64064,.69648587E-4,.477E-5,0
APRIZESAT 9,2014-033J,2026-05-11T08:26:04.574976,14.74170580,.00652197,97.9006,265.4614,319.6697,39.9684,0,U,40018,999,63813,.48806231E-4,.279E-5,0
BRITE-CA1 (TORONTO),2014-033L,2026-05-11T14:51:28.041984,14.72626037,.00793856,97.9686,261.2334,34.8892,325.7483,0,U,40020,999,63683,.76723418E-4,.46E-5,0
