TRITON-1                
1 39427U 13066M   26131.62440234  .00001526  00000+0  18815-3 0  9998
2 39427  97.8261  42.2640 0090303 354.6003   5.4227 14.81541563668675
GOMX-1                  
1 39430U 13066Q   26131.54934679  .00001294  00000+0  20091-3 0  9995
2 39430  97.6515 334.3223 0128324 194.5638 165.1858 14.69314246664538
CUBEBUG-2 (LO-74)       
1 39440U 13066AA  26131.35080674  .00002195  00000+0  20735-3 0  9998
2 39440  97.8888  80.1880 0058773 148.0280 212.4528 14.93485849671494
NEE-02 KRYSAOR          
1 39441U 13066AB  26131.38962224  .00000982  00000+0  11322-3 0  9996
2 39441  97.8880  70.8755 0065923 189.0931 170.9096 14.86480005670732
FUNCUBE-1 (AO-73)       
1 39444U 13066AE  26131.59147391  .00005470  00000+0  34515-3 0  9998
2 39444  97.8258 102.2919 0035581 331.0959  28.8297 15.09009001674144
UWE-3                   
1 39446U 13066AG  26131.38258806  .00001982  00000+0  17442-3 0  9995
2 39446  97.8679  87.2245 0050992  82.4321 278.2689 14.96714136672073
SMDC ONE 2.4            
1 39469U 13072H   26131.05024341  .00005770  00000+0  23811-3 0  9992
2 39469 120.4875 208.7957 0139640 338.7660  20.7659 15.17484604112197
COSMOS 2488 (RODNIK-S 7)
1 39483U 13076A   26131.57314495 -.00000014  00000+0 -16962-3 0  9998
2 39483  82.4860 191.5054 0019899 171.8275 188.3132 12.42904449561343
COSMOS 2489 (RODNIK-S 8)
1 39484U 13076B   26131.62807711 -.00000108  00000+0 -84779-3 0  9998
2 39484  82.4897 192.8376 0021743 171.9025 188.2410 12.42878984561409
COSMOS 2490 (RODNIK-S 9)
1 39485U 13076C   26131.59990082 -.00000092  00000+0 -73452-3 0  9997
2 39485  82.4843 190.9389 0021505 187.6049 172.4708 12.42876323561332
KAZEOSAT 1              
1 39731U 14024A   26131.59456419  .00000338  00000+0  11585-3 0  9996
2 39731  98.3208 204.9494 0001581  91.8311 268.3060 14.42065901633284
COSMOS 2496 (RODNIK-S *)
1 39761U 14028A   26131.63798428  .00000076  00000+0  47949-3 0  9999
2 39761  82.4428 131.6250 0020377 155.2537 204.9525 12.42877072542975
COSMOS 2497 (RODNIK-S *)
1 39762U 14028B   26131.61372725 -.00000040  00000+0 -35916-3 0  9990
2 39762  82.4477 133.3160 0021043 150.4674 209.7599 12.42892484542977
COSMOS 2498 (RODNIK-S *)
1 39763U 14028C   26131.59386348 -.00000047  00000+0 -41356-3 0  9996
2 39763  82.4436 131.8313 0021767 150.3048 209.9272 12.42978993543008
HODOYOSHI-4             
1 40011U 14033B   26131.65611957  .00000617  00000+0  72495-4 0  9994
2 40011  97.5461 318.2447 0025061  67.9828 292.4048 14.88039524643379
UNISAT-6                
1 40012U 14033C   26131.42027005  .00001955  00000+0  21502-3 0  9993
2 40012  97.7835 284.7952 0045113 187.9551 172.0955 14.88027181640699
DEIMOS-2                
1 40013U 14033D   26131.60618245  .00001297  00000+0  12799-3 0  9993
2 40013  97.5876   7.3729 0002499  86.8191 273.3315 14.93622511632264
BUGSAT-1 (TITA)         
1 40014U 14033E   26131.58674524  .00004053  00000+0  21793-3 0  9990
2 40014  98.0408 222.0096 0027106 307.4660  52.4106 15.15207954650292
SAUDISAT 4              
1 40016U 14033G   26131.46273033  .00000477  00000+0  69649-4 0  9998
2 40016  97.7534 278.8790 0044587 191.0981 168.9252 14.79489154640641
APRIZESAT 9             
1 40018U 14033J   26131.35144184  .00000279  00000+0  48806-4 0  9994
2 40018  97.9006 265.4614 0065219 319.6697  39.9684 14.74170580638135
BRITE-CA1 (TORONTO)     
1 40020U 14033L   26131.61907456  .00000460  00000+0  76723-4 0  9996
2 40020  97.9686 261.2334 0079385  34.8892 325.7483 14.72626037636836
